0 FENGYUN 1C DEB
1 33730U 99025DHT 13282.53793388  .00001928  00000-0  76750-3 0  2668
2 33730 099.0150 028.2346 0070010 124.9409 235.8627 14.28513045319003
0 FENGYUN 1C DEB
1 33730U 99025DHT 13287.09064960  .00002062  00000-0  81778-3 0  2689
2 33730 099.0183 032.9510 0071980 111.0392 249.8507 14.28535166319650
0 FENGYUN 1C DEB
1 33730U 99025DHT 13289.54208308  .00002123  00000-0  84124-3 0  2694
2 33730 099.0187 035.4864 0071942 103.0684 257.8617 14.28547451320009
0 FENGYUN 1C DEB
1 33730U 99025DHT 13291.08297103  .00002176  00000-0  86215-3 0  2700
2 33730 099.0173 037.0769 0071262 097.6898 263.2630 14.28555952320221
0 FENGYUN 1C DEB
1 33730U 99025DHT 13293.11412267  .00002250  00000-0  88872-3 0  2711
2 33730 099.0211 039.1787 0074032 094.9583 266.0772 14.28567388320512
0 FENGYUN 1C DEB
1 33730U 99025DHT 13295.07521219  .00002284  00000-0  90191-3 0  2721
2 33730 099.0265 041.2145 0073859 089.3878 271.6179 14.28577565320795
0 FENGYUN 1C DEB
1 33730U 99025DHT 13296.05574975  .00002407  00000-0  94997-3 0  2733
2 33730 099.0201 042.2135 0073074 086.9496 274.1526 14.28586985320939
